{"type": "FeatureCollection", "features": [ {"type": "Feature", "properties": {"norad_id": 32384, "name": "GPS BIIRM-5 (PRN 29)", "group": "gps-ops", "lat": -39.00184951558731, "lon": 135.99773978030476, "alt_km": 20152.63011350789, "timestamp": "2025-12-09T21:34:11.666239+00:00", "meta": {"OBJECT_NAME": "GPS BIIRM-5 (PRN 29)", "OBJECT_ID": "2007-062A", "EPOCH": "2025-12-09T04:27:19.804896", "MEAN_MOTION": 2.00577042, "ECCENTRICITY": 0.00322219, "INCLINATION": 55.1854, "RA_OF_ASC_NODE": 281.7885, "ARG_OF_PERICENTER": 162.5723, "MEAN_ANOMALY": 272.1574, "EPHEMERIS_TYPE": 0, "CLASSIFICATION_TYPE": "U", "NORAD_CAT_ID": 32384, "ELEMENT_SET_NO": 999, "REV_AT_EPOCH": 13170, "BSTAR": 0, "MEAN_MOTION_DOT": -5.2e-07, "MEAN_MOTION_DDOT": 0}, "tle": {"line1": "1 32384U 07062A   25343.18564589 -.00000052  00000+0  00000+0 0  9994", "line2": "2 32384  55.1854 281.7885 0032221 162.5723 272.1574  2.00577042131702"}}, "geometry": {"type": "Point", "coordinates": [135.99773978030476, -39.00184951558731]}}, {"type": "Feature", "properties": {"norad_id": 32711, "name": "GPS BIIRM-6 (PRN 07)", "group": "gps-ops", "lat": 22.566058514280943, "lon": -39.79468102771999, "alt_km": 20197.674586884285, "timestamp": "2025-12-09T21:34:11.666251+00:00", "meta": {"OBJECT_NAME": "GPS BIIRM-6 (PRN 07)", "OBJECT_ID": "2008-012A", "EPOCH": "2025-12-09T04:24:39.828384", "MEAN_MOTION": 2.00565429, "ECCENTRICITY": 0.0202295, "INCLINATION": 54.4767, "RA_OF_ASC_NODE": 157.5149, "ARG_OF_PERICENTER": 244.9075, "MEAN_ANOMALY": 112.9865, "EPHEMERIS_TYPE": 0, "CLASSIFICATION_TYPE": "U", "NORAD_CAT_ID": 32711, "ELEMENT_SET_NO": 999, "REV_AT_EPOCH": 12994, "BSTAR": 0, "MEAN_MOTION_DOT": 6.4e-07, "MEAN_MOTION_DDOT": 0}, "tle": {"line1": "1 32711U 08012A   25343.18379431  .00000064  00000+0  00000+0 0  9996", "line2": "2 32711  54.4767 157.5149 0202295 244.9075 112.9865  2.00565429129942"}}, "geometry": {"type": "Point", "coordinates": [-39.79468102771999, 22.566058514280943]}}, {"type": "Feature", "properties": {"norad_id": 35752, "name": "GPS BIIRM-8 (PRN 05)", "group": "gps-ops", "lat": 4.366524200884916, "lon": -148.0306431942015, "alt_km": 20187.816238256637, "timestamp": "2025-12-09T21:34:11.666263+00:00", "meta": {"OBJECT_NAME": "GPS BIIRM-8 (PRN 05)", "OBJECT_ID": "2009-043A", "EPOCH": "2025-12-09T03:40:35.787936", "MEAN_MOTION": 2.00565819, "ECCENTRICITY": 0.0051902, "INCLINATION": 56.0885, "RA_OF_ASC_NODE": 34.9246, "ARG_OF_PERICENTER": 81.9687, "MEAN_ANOMALY": 273.8421, "EPHEMERIS_TYPE": 0, "CLASSIFICATION_TYPE": "U", "NORAD_CAT_ID": 35752, "ELEMENT_SET_NO": 999, "REV_AT_EPOCH": 11954, "BSTAR": 0, "MEAN_MOTION_DOT": -8.5e-07, "MEAN_MOTION_DDOT": 0}, "tle": {"line1": "1 35752U 09043A   25343.15319199 -.00000085  00000+0  00000+0 0  9995", "line2": "2 35752  56.0885  34.9246 0051902  81.9687 273.8421  2.00565819119543"}}, "geometry": {"type": "Point", "coordinates": [-148.0306431942015, 4.366524200884916]}}, {"type": "Feature", "properties": {"norad_id": 36585, "name": "GPS BIIF-1  (PRN 25)", "group": "gps-ops", "lat": -49.064401581039775, "lon": 160.2440288960205, "alt_km": 20416.7208205049, "timestamp": "2025-12-09T21:34:11.666274+00:00", "meta": {"OBJECT_NAME": "GPS BIIF-1  (PRN 25)", "OBJECT_ID": "2010-022A", "EPOCH": "2025-12-09T05:42:57.006720", "MEAN_MOTION": 2.00552985, "ECCENTRICITY": 0.0125965, "INCLINATION": 54.3007, "RA_OF_ASC_NODE": 216.2152, "ARG_OF_PERICENTER": 65.0346, "MEAN_ANOMALY": 110.6478, "EPHEMERIS_TYPE": 0, "CLASSIFICATION_TYPE": "U", "NORAD_CAT_ID": 36585, "ELEMENT_SET_NO": 999, "REV_AT_EPOCH": 11378, "BSTAR": 0, "MEAN_MOTION_DOT": 1.4e-07, "MEAN_MOTION_DDOT": 0}, "tle": {"line1": "1 36585U 10022A   25343.23815980  .00000014  00000+0  00000+0 0  9998", "line2": "2 36585  54.3007 216.2152 0125965  65.0346 110.6478  2.00552985113782"}}, "geometry": {"type": "Point", "coordinates": [160.2440288960205, -49.064401581039775]}}, {"type": "Feature", "properties": {"norad_id": 38833, "name": "GPS BIIF-3  (PRN 24)", "group": "gps-ops", "lat": 22.816373891351436, "lon": 169.46027000722864, "alt_km": 19795.053891910324, "timestamp": "2025-12-09T21:34:11.666286+00:00", "meta": {"OBJECT_NAME": "GPS BIIF-3  (PRN 24)", "OBJECT_ID": "2012-053A", "EPOCH": "2025-12-09T08:40:03.793728", "MEAN_MOTION": 2.00564926, "ECCENTRICITY": 0.01757344, "INCLINATION": 53.5568, "RA_OF_ASC_NODE": 151.3769, "ARG_OF_PERICENTER": 63.947, "MEAN_ANOMALY": 297.8481, "EPHEMERIS_TYPE": 0, "CLASSIFICATION_TYPE": "U", "NORAD_CAT_ID": 38833, "ELEMENT_SET_NO": 999, "REV_AT_EPOCH": 9563, "BSTAR": 0, "MEAN_MOTION_DOT": 6.3e-07, "MEAN_MOTION_DDOT": 0}, "tle": {"line1": "1 38833U 12053A   25343.36115502  .00000063  00000+0  00000+0 0  9993", "line2": "2 38833  53.5568 151.3769 0175734  63.9470 297.8481  2.00564926 95633"}}, "geometry": {"type": "Point", "coordinates": [169.46027000722864, 22.816373891351436]}}, {"type": "Feature", "properties": {"norad_id": 39166, "name": "GPS BIIF-4  (PRN 27)", "group": "gps-ops", "lat": 39.24767563326733, "lon": 61.28793553753024, "alt_km": 20112.597087505295, "timestamp": "2025-12-09T21:34:11.666298+00:00", "meta": {"OBJECT_NAME": "GPS BIIF-4  (PRN 27)", "OBJECT_ID": "2013-023A", "EPOCH": "2025-12-09T05:24:11.844576", "MEAN_MOTION": 2.00565099, "ECCENTRICITY": 0.01376828, "INCLINATION": 54.6551, "RA_OF_ASC_NODE": 276.7112, "ARG_OF_PERICENTER": 48.5762, "MEAN_ANOMALY": 312.6137, "EPHEMERIS_TYPE": 0, "CLASSIFICATION_TYPE": "U", "NORAD_CAT_ID": 39166, "ELEMENT_SET_NO": 999, "REV_AT_EPOCH": 9207, "BSTAR": 0, "MEAN_MOTION_DOT": -4.9e-07, "MEAN_MOTION_DDOT": 0}, "tle": {"line1": "1 39166U 13023A   25343.22513709 -.00000049  00000+0  00000+0 0  9992", "line2": "2 39166  54.6551 276.7112 0137682  48.5762 312.6137  2.00565099 92075"}}, "geometry": {"type": "Point", "coordinates": [61.28793553753024, 39.24767563326733]}}, {"type": "Feature", "properties": {"norad_id": 39533, "name": "GPS BIIF-5  (PRN 30)", "group": "gps-ops", "lat": 38.65885827999553, "lon": -59.09967994824789, "alt_km": 20201.948224142263, "timestamp": "2025-12-09T21:34:11.666310+00:00", "meta": {"OBJECT_NAME": "GPS BIIF-5  (PRN 30)", "OBJECT_ID": "2014-008A", "EPOCH": "2025-12-09T05:15:48.383136", "MEAN_MOTION": 2.00574211, "ECCENTRICITY": 0.0079126, "INCLINATION": 53.6307, "RA_OF_ASC_NODE": 157.0682, "ARG_OF_PERICENTER": 226.4462, "MEAN_ANOMALY": 132.9001, "EPHEMERIS_TYPE": 0, "CLASSIFICATION_TYPE": "U", "NORAD_CAT_ID": 39533, "ELEMENT_SET_NO": 999, "REV_AT_EPOCH": 8587, "BSTAR": 0, "MEAN_MOTION_DOT": 6.2e-07, "MEAN_MOTION_DDOT": 0}, "tle": {"line1": "1 39533U 14008A   25343.21930999  .00000062  00000+0  00000+0 0  9991", "line2": "2 39533  53.6307 157.0682 0079126 226.4462 132.9001  2.00574211 85875"}}, "geometry": {"type": "Point", "coordinates": [-59.09967994824789, 38.65885827999553]}}, {"type": "Feature", "properties": {"norad_id": 39741, "name": "GPS BIIF-6  (PRN 06)", "group": "gps-ops", "lat": -53.453915719517994, "lon": -84.06910839601363, "alt_km": 20100.630239660215, "timestamp": "2025-12-09T21:34:11.666321+00:00", "meta": {"OBJECT_NAME": "GPS BIIF-6  (PRN 06)", "OBJECT_ID": "2014-026A", "EPOCH": "2025-12-09T12:03:20.841120", "MEAN_MOTION": 2.00561505, "ECCENTRICITY": 0.00391055, "INCLINATION": 56.5849, "RA_OF_ASC_NODE": 338.9023, "ARG_OF_PERICENTER": 318.4921, "MEAN_ANOMALY": 41.2219, "EPHEMERIS_TYPE": 0, "CLASSIFICATION_TYPE": "U", "NORAD_CAT_ID": 39741, "ELEMENT_SET_NO": 999, "REV_AT_EPOCH": 8473, "BSTAR": 0, "MEAN_MOTION_DOT": -8.4e-07, "MEAN_MOTION_DDOT": 0}, "tle": {"line1": "1 39741U 14026A   25343.50232455 -.00000084  00000+0  00000+0 0  9991", "line2": "2 39741  56.5849 338.9023 0039105 318.4921  41.2219  2.00561505 84732"}}, "geometry": {"type": "Point", "coordinates": [-84.06910839601363, -53.453915719517994]}}, {"type": "Feature", "properties": {"norad_id": 40105, "name": "GPS BIIF-7  (PRN 09)", "group": "gps-ops", "lat": -34.52985870594751, "lon": -55.47118268023295, "alt_km": 20206.138339124493, "timestamp": "2025-12-09T21:34:11.666333+00:00", "meta": {"OBJECT_NAME": "GPS BIIF-7  (PRN 09)", "OBJECT_ID": "2014-045A", "EPOCH": "2025-12-09T14:09:41.937408", "MEAN_MOTION": 2.00572274, "ECCENTRICITY": 0.00327632, "INCLINATION": 55.2273, "RA_OF_ASC_NODE": 96.0246, "ARG_OF_PERICENTER": 119.7913, "MEAN_ANOMALY": 240.5219, "EPHEMERIS_TYPE": 0, "CLASSIFICATION_TYPE": "U", "NORAD_CAT_ID": 40105, "ELEMENT_SET_NO": 999, "REV_AT_EPOCH": 8227, "BSTAR": 0, "MEAN_MOTION_DOT": 2e-08, "MEAN_MOTION_DDOT": 0}, "tle": {"line1": "1 40105U 14045A   25343.59006872  .00000002  00000+0  00000+0 0  9998", "line2": "2 40105  55.2273  96.0246 0032763 119.7913 240.5219  2.00572274 82276"}}, "geometry": {"type": "Point", "coordinates": [-55.47118268023295, -34.52985870594751]}}, {"type": "Feature", "properties": {"norad_id": 40294, "name": "GPS BIIF-8  (PRN 03)", "group": "gps-ops", "lat": -39.03325074262247, "lon": 6.31256946001853, "alt_km": 20261.86245555173, "timestamp": "2025-12-09T21:34:11.666344+00:00", "meta": {"OBJECT_NAME": "GPS BIIF-8  (PRN 03)", "OBJECT_ID": "2014-068A", "EPOCH": "2025-12-09T11:13:35.595840", "MEAN_MOTION": 2.00564545, "ECCENTRICITY": 0.00607875, "INCLINATION": 56.8554, "RA_OF_ASC_NODE": 38.2726, "ARG_OF_PERICENTER": 69.25, "MEAN_ANOMALY": 291.455, "EPHEMERIS_TYPE": 0, "CLASSIFICATION_TYPE": "U", "NORAD_CAT_ID": 40294, "ELEMENT_SET_NO": 999, "REV_AT_EPOCH": 8140, "BSTAR": 0, "MEAN_MOTION_DOT": -8.3e-07, "MEAN_MOTION_DDOT": 0}, "tle": {"line1": "1 40294U 14068A   25343.46777310 -.00000083  00000+0  00000+0 0  9990", "line2": "2 40294  56.8554  38.2726 0060787  69.2500 291.4550  2.00564545 81402"}}, "geometry": {"type": "Point", "coordinates": [6.31256946001853, -39.03325074262247]}}]}